start=new Date('2022-10-20T00:00:00.000Z').valueOf();
sats=[{"EPOCH":"2022-10-19T21:54:32.805216","ECCENTRICITY":"0.00016440","EPHEMERIS_TYPE":"0","INCLINATION":"53.0519","REV_AT_EPOCH":"8691","SEMIMAJOR_AXIS":"6925.322","DECAY_DATE":null,"NORAD_CAT_ID":"48143","CLASSIFICATION_TYPE":"U","ARG_OF_PERICENTER":"64.1463","COUNTRY_CODE":"US","BSTAR":"0.00027253000000","GP_ID":"215620648","SITE":"AFETR","RCS_SIZE":"LARGE","RA_OF_ASC_NODE":"258.7343","MEAN_ELEMENT_THEORY":"SGP4","TLE_LINE1":"1 48143U 21027BD  22292.91287969  .00003781  00000-0  27253-3 0  9991","TIME_SYSTEM":"UTC","MEAN_MOTION":"15.06408805","LAUNCH_DATE":"2021-04-07","ELEMENT_SET_NO":"999","CENTER_NAME":"EARTH","REF_FRAME":"TEME","OBJECT_TYPE":"PAYLOAD","FILE":"3623738","MEAN_MOTION_DDOT":"0.0000000000000","TLE_LINE2":"2 48143  53.0519 258.7343 0001644  64.1463 295.9696 15.06408805 86913","PERIAPSIS":"546.048","PERIOD":"95.592","OBJECT_NAME":"STARLINK-2486","MEAN_ANOMALY":"295.9696","OBJECT_ID":"2021-027BD","APOAPSIS":"548.325","MEAN_MOTION_DOT":"0.00003781"},{"COUNTRY_CODE":"US","ARG_OF_PERICENTER":"44.8409","CLASSIFICATION_TYPE":"U","NORAD_CAT_ID":"48144","GP_ID":"215580365","BSTAR":"0.00014239000000","RCS_SIZE":"LARGE","SITE":"AFETR","RA_OF_ASC_NODE":"306.0122","MEAN_ELEMENT_THEORY":"SGP4","TLE_LINE1":"1 48144U 21027BE  22292.40654626  .00001839  00000-0  14239-3 0  9996","ECCENTRICITY":"0.00020870","EPHEMERIS_TYPE":"0","EPOCH":"2022-10-19T09:45:25.596864","INCLINATION":"53.0538","DECAY_DATE":null,"SEMIMAJOR_AXIS":"6925.370","REV_AT_EPOCH":"8620","MEAN_MOTION_DDOT":"0.0000000000000","TLE_LINE2":"2 48144  53.0538 306.0122 0002087  44.8409 315.2749 15.06393117 86200","PERIAPSIS":"545.789","PERIOD":"95.593","MEAN_ANOMALY":"315.2749","OBJECT_NAME":"STARLINK-2487","OBJECT_ID":"2021-027BE","APOAPSIS":"548.680","MEAN_MOTION_DOT":"0.00001839","TIME_SYSTEM":"UTC","MEAN_MOTION":"15.06393117","LAUNCH_DATE":"2021-04-07","ELEMENT_SET_NO":"999","CENTER_NAME":"EARTH","FILE":"3623062","REF_FRAME":"TEME","OBJECT_TYPE":"PAYLOAD"},{"BSTAR":"0.00007138200000","GP_ID":"215579113","NORAD_CAT_ID":"48145","CLASSIFICATION_TYPE":"U","COUNTRY_CODE":"US","ARG_OF_PERICENTER":"43.7562","TLE_LINE1":"1 48145U 21027BF  22292.27753194  .00000782  00000-0  71382-4 0  9991","MEAN_ELEMENT_THEORY":"SGP4","RA_OF_ASC_NODE":"306.5883","SITE":"AFETR","RCS_SIZE":"LARGE","EPOCH":"2022-10-19T06:39:38.759616","EPHEMERIS_TYPE":"0","ECCENTRICITY":"0.00020400","REV_AT_EPOCH":"8619","SEMIMAJOR_AXIS":"6925.326","DECAY_DATE":null,"INCLINATION":"53.0552","PERIAPSIS":"545.778","PERIOD":"95.592","TLE_LINE2":"2 48145  53.0552 306.5883 0002040  43.7562 316.3588 15.06407311 86196","MEAN_MOTION_DDOT":"0.0000000000000","MEAN_MOTION_DOT":"0.00000782","OBJECT_ID":"2021-027BF","APOAPSIS":"548.604","OBJECT_NAME":"STARLINK-2488","MEAN_ANOMALY":"316.3588","MEAN_MOTION":"15.06407311","TIME_SYSTEM":"UTC","REF_FRAME":"TEME","OBJECT_TYPE":"PAYLOAD","FILE":"3623062","CENTER_NAME":"EARTH","ELEMENT_SET_NO":"999","LAUNCH_DATE":"2021-04-07"},{"EPOCH":"2022-10-19T11:23:37.056480","EPHEMERIS_TYPE":"0","ECCENTRICITY":"0.00019850","INCLINATION":"53.0544","REV_AT_EPOCH":"8594","DECAY_DATE":null,"SEMIMAJOR_AXIS":"6925.357","GP_ID":"215579363","BSTAR":"0.00016566000000","NORAD_CAT_ID":"48146","CLASSIFICATION_TYPE":"U","COUNTRY_CODE":"US","ARG_OF_PERICENTER":"37.6601","RA_OF_ASC_NODE":"325.7072","MEAN_ELEMENT_THEORY":"SGP4","TLE_LINE1":"1 48146U 21027BG  22292.47473445  .00002186  00000-0  16566-3 0  9994","SITE":"AFETR","RCS_SIZE":"LARGE","TIME_SYSTEM":"UTC","MEAN_MOTION":"15.06397289","CENTER_NAME":"EARTH","OBJECT_TYPE":"PAYLOAD","REF_FRAME":"TEME","FILE":"3623062","LAUNCH_DATE":"2021-04-07","ELEMENT_SET_NO":"999","TLE_LINE2":"2 48146  53.0544 325.7072 0001985  37.6601 322.4526 15.06397289 85948","PERIAPSIS":"545.847","PERIOD":"95.592","MEAN_MOTION_DDOT":"0.0000000000000","MEAN_MOTION_DOT":"0.00002186","OBJECT_NAME":"STARLINK-2489","MEAN_ANOMALY":"322.4526","APOAPSIS":"548.597","OBJECT_ID":"2021-027BG"},{"PERIOD":"95.592","PERIAPSIS":"545.676","TLE_LINE2":"2 48147  53.0547 330.4174 0002238  38.6038 321.5111 15.06395990 85885","MEAN_MOTION_DDOT":"0.0000000000000","MEAN_MOTION_DOT":"-0.00000927","APOAPSIS":"548.776","OBJECT_ID":"2021-027BH","MEAN_ANOMALY":"321.5111","OBJECT_NAME":"STARLINK-2490","MEAN_MOTION":"15.06395990","TIME_SYSTEM":"UTC","FILE":"3623062","REF_FRAME":"TEME","OBJECT_TYPE":"PAYLOAD","CENTER_NAME":"EARTH","ELEMENT_SET_NO":"999","LAUNCH_DATE":"2021-04-07","BSTAR":"-0.00004329900000","GP_ID":"215580614","ARG_OF_PERICENTER":"38.6038","COUNTRY_CODE":"US","CLASSIFICATION_TYPE":"U","NORAD_CAT_ID":"48147","TLE_LINE1":"1 48147U 21027BH  22292.53878344 -.00000927  00000-0 -43299-4 0  9996","RA_OF_ASC_NODE":"330.4174","MEAN_ELEMENT_THEORY":"SGP4","RCS_SIZE":"MEDIUM","SITE":"AFETR","ECCENTRICITY":"0.00022380","EPHEMERIS_TYPE":"0","EPOCH":"2022-10-19T12:55:50.889216","DECAY_DATE":null,"SEMIMAJOR_AXIS":"6925.361","REV_AT_EPOCH":"8588","INCLINATION":"53.0547"},{"MEAN_ANOMALY":"316.7096","OBJECT_NAME":"STARLINK-2491","APOAPSIS":"548.713","OBJECT_ID":"2021-027BJ","MEAN_MOTION_DOT":"0.00000270","MEAN_MOTION_DDOT":"0.0000000000000","TLE_LINE2":"2 48148  53.0557 325.2396 0002130  43.4060 316.7096 15.06392153 85948","PERIOD":"95.593","PERIAPSIS":"545.763","LAUNCH_DATE":"2021-04-07","ELEMENT_SET_NO":"999","CENTER_NAME":"EARTH","FILE":"3623738","OBJECT_TYPE":"PAYLOAD","REF_FRAME":"TEME","TIME_SYSTEM":"UTC","MEAN_MOTION":"15.06392153","RCS_SIZE":"LARGE","SITE":"AFETR","MEAN_ELEMENT_THEORY":"SGP4","RA_OF_ASC_NODE":"325.2396","TLE_LINE1":"1 48148U 21027BJ  22292.57427141  .00000270  00000-0  37062-4 0  9996","ARG_OF_PERICENTER":"43.4060","COUNTRY_CODE":"US","NORAD_CAT_ID":"48148","CLASSIFICATION_TYPE":"U","BSTAR":"0.00003706200000","GP_ID":"215621400","INCLINATION":"53.0557","DECAY_DATE":null,"SEMIMAJOR_AXIS":"6925.373","REV_AT_EPOCH":"8594","ECCENTRICITY":"0.00021300","EPHEMERIS_TYPE":"0","EPOCH":"2022-10-19T13:46:57.049824"},{"TIME_SYSTEM":"UTC","MEAN_MOTION":"15.06402411","CENTER_NAME":"EARTH","OBJECT_TYPE":"PAYLOAD","REF_FRAME":"TEME","FILE":"3623062","LAUNCH_DATE":"2021-04-07","ELEMENT_SET_NO":"999","TLE_LINE2":"2 48149  53.0542 305.7915 0002190  40.1996 319.9155 15.06402411 86212","PERIOD":"95.592","PERIAPSIS":"545.690","MEAN_MOTION_DDOT":"0.0000000000000","MEAN_MOTION_DOT":"0.00001211","OBJECT_NAME":"STARLINK-2492","MEAN_ANOMALY":"319.9155","OBJECT_ID":"2021-027BK","APOAPSIS":"548.723","EPOCH":"2022-10-19T10:54:25.616160","EPHEMERIS_TYPE":"0","ECCENTRICITY":"0.00021900","INCLINATION":"53.0542","REV_AT_EPOCH":"8621","DECAY_DATE":null,"SEMIMAJOR_AXIS":"6925.341","GP_ID":"215579613","BSTAR":"0.00010021000000","NORAD_CAT_ID":"48149","CLASSIFICATION_TYPE":"U","COUNTRY_CODE":"US","ARG_OF_PERICENTER":"40.1996","MEAN_ELEMENT_THEORY":"SGP4","RA_OF_ASC_NODE":"305.7915","TLE_LINE1":"1 48149U 21027BK  22292.45446315  .00001211  00000-0  10021-3 0  9999","SITE":"AFETR","RCS_SIZE":"LARGE"},{"TLE_LINE1":"1 48150U 21027BL  22292.45814644  .00000077  00000-0  24073-4 0  9997","MEAN_ELEMENT_THEORY":"SGP4","RA_OF_ASC_NODE":"305.7621","RCS_SIZE":"LARGE","SITE":"AFETR","GP_ID":"215579863","BSTAR":"0.00002407300000","ARG_OF_PERICENTER":"39.3963","COUNTRY_CODE":"US","CLASSIFICATION_TYPE":"U","NORAD_CAT_ID":"48150","DECAY_DATE":null,"SEMIMAJOR_AXIS":"6925.350","REV_AT_EPOCH":"8622","INCLINATION":"53.0545","ECCENTRICITY":"0.00020970","EPHEMERIS_TYPE":"0","EPOCH":"2022-10-19T10:59:43.852416","MEAN_MOTION_DOT":"0.00000077","APOAPSIS":"548.668","OBJECT_ID":"2021-027BL","MEAN_ANOMALY":"320.7179","OBJECT_NAME":"STARLINK-2493","PERIOD":"95.592","PERIAPSIS":"545.763","TLE_LINE2":"2 48150  53.0545 305.7621 0002097  39.3963 320.7179 15.06399391 86220","MEAN_MOTION_DDOT":"0.0000000000000","FILE":"3623062","REF_FRAME":"TEME","OBJECT_TYPE":"PAYLOAD","CENTER_NAME":"EARTH","ELEMENT_SET_NO":"999","LAUNCH_DATE":"2021-04-07","MEAN_MOTION":"15.06399391","TIME_SYSTEM":"UTC"},{"ECCENTRICITY":"0.00022780","EPHEMERIS_TYPE":"0","EPOCH":"2022-10-19T20:38:16.496160","SEMIMAJOR_AXIS":"6925.376","DECAY_DATE":null,"REV_AT_EPOCH":"8628","INCLINATION":"53.0554","BSTAR":"-0.00001745600000","GP_ID":"215620649","ARG_OF_PERICENTER":"34.8047","COUNTRY_CODE":"US","NORAD_CAT_ID":"48151","CLASSIFICATION_TYPE":"U","TLE_LINE1":"1 48151U 21027BM  22292.85991315 -.00000542  00000-0 -17456-4 0  9999","MEAN_ELEMENT_THEORY":"SGP4","RA_OF_ASC_NODE":"303.9683","RCS_SIZE":"LARGE","SITE":"AFETR","MEAN_MOTION":"15.06391009","TIME_SYSTEM":"UTC","FILE":"3623738","REF_FRAME":"TEME","OBJECT_TYPE":"PAYLOAD","CENTER_NAME":"EARTH","ELEMENT_SET_NO":"999","LAUNCH_DATE":"2021-04-07","PERIOD":"95.593","PERIAPSIS":"545.664","TLE_LINE2":"2 48151  53.0554 303.9683 0002278  34.8047 325.3091 15.06391009 86281","MEAN_MOTION_DDOT":"0.0000000000000","MEAN_MOTION_DOT":"-0.00000542","OBJECT_ID":"2021-027BM","APOAPSIS":"548.819","MEAN_ANOMALY":"325.3091","OBJECT_NAME":"STARLINK-2503"},{"EPOCH":"2022-10-19T20:01:47.636832","ECCENTRICITY":"0.00015930","EPHEMERIS_TYPE":"0","REV_AT_EPOCH":"8238","SEMIMAJOR_AXIS":"6925.362","DECAY_DATE":null,"INCLINATION":"53.0555","BSTAR":"0.00008088500000","GP_ID":"215621413","CLASSIFICATION_TYPE":"U","NORAD_CAT_ID":"48276","ARG_OF_PERICENTER":"82.7822","COUNTRY_CODE":"US","TLE_LINE1":"1 48276U 21036A   22292.83457913  .00000923  00000-0  80885-4 0  9993","RA_OF_ASC_NODE":"199.0884","MEAN_ELEMENT_THEORY":"SGP4","SITE":"AFETR","RCS_SIZE":"LARGE","MEAN_MOTION":"15.06395663","TIME_SYSTEM":"UTC","REF_FRAME":"TEME","OBJECT_TYPE":"PAYLOAD","FILE":"3623738","CENTER_NAME":"EARTH","ELEMENT_SET_NO":"999","LAUNCH_DATE":"2021-04-29","PERIAPSIS":"546.124","PERIOD":"95.592","TLE_LINE2":"2 48276  53.0555 199.0884 0001593  82.7822 277.3348 15.06395663 82387","MEAN_MOTION_DDOT":"0.0000000000000","MEAN_MOTION_DOT":"0.00000923","OBJECT_ID":"2021-036A","APOAPSIS":"548.330","OBJECT_NAME":"STARLINK-2567","MEAN_ANOMALY":"277.3348"}];
